2023-104A               
1 57424U 23104A   26065.78279804  .00015492  00000+0  48200-3 0  9993
2 57424  97.2792 135.5625 0009333 122.1915 238.0234 15.33350758146346
AETHER-2                
1 58299U 23174AV  26068.71793741  .00008341  00000+0  26166-3 0  9990
2 58299  97.3931 151.9008 0008630 139.5247 220.6639 15.33264165129982
